CS2                     
1 49262U 21088C   26068.73485932  .00018033  00000+0  56178-3 0  9999
2 49262  97.3928 134.2907 0011637  82.3491 277.9072 15.33255930245263
STARLINK-33857          
1 64195U 25113AB  26068.79405419  .00024432  00000+0  83379-3 0  9995
2 64195  53.1599  90.4571 0001938 107.8257 252.2955 15.30220343 45042
