[{"OBJECT_NAME":"CS2","OBJECT_ID":"2021-088C","EPOCH":"2026-03-09T17:38:11.846112","MEAN_MOTION":15.3325593,"ECCENTRICITY":0.00116375,"INCLINATION":97.3928,"RA_OF_ASC_NODE":134.2907,"ARG_OF_PERICENTER":82.3491,"MEAN_ANOMALY":277.9072,"EPHEMERIS_TYPE":0,"CLASSIFICATION_TYPE":"U","NORAD_CAT_ID":49262,"ELEMENT_SET_NO":999,"REV_AT_EPOCH":24526,"BSTAR":0.0005617759,"MEAN_MOTION_DOT":0.00018033,"MEAN_MOTION_DDOT":0},{"OBJECT_NAME":"STARLINK-33857","OBJECT_ID":"2025-113AB","EPOCH":"2026-03-09T19:03:26.282880","MEAN_MOTION":15.30220343,"ECCENTRICITY":0.00019382,"INCLINATION":53.1599,"RA_OF_ASC_NODE":90.4571,"ARG_OF_PERICENTER":107.8257,"MEAN_ANOMALY":252.2955,"EPHEMERIS_TYPE":0,"CLASSIFICATION_TYPE":"U","NORAD_CAT_ID":64195,"ELEMENT_SET_NO":999,"REV_AT_EPOCH":4504,"BSTAR":0.00083378978,"MEAN_MOTION_DOT":0.00024432,"MEAN_MOTION_DDOT":0}]
